COSMOS 2361 [-]         
1 25590U 98076A   22347.33710756  .00000070  00000+0  59113-4 0  9990
2 25590  82.9351  73.9353 0032768  72.2870 351.5453 13.73036740200780
COSMOS 2378 [-]         
1 26818U 01023A   22347.41041340  .00000067  00000+0  55101-4 0  9994
2 26818  82.9280  91.5973 0033285  18.9166  47.3164 13.73980583 78818
COSMOS 2389 [-]         
1 27436U 02026A   22347.22778465  .00000061  00000+0  47839-4 0  9992
2 27436  82.9519  37.7128 0045287 235.8719 187.5730 13.74989533 30935
COSMOS 2398 [-]         
1 27818U 03023A   22347.44571860  .00000055  00000+0  43937-4 0  9996
2 27818  82.9483 359.7275 0029918 274.9975 196.7800 13.72224991977938
COSMOS 2407 [+]         
1 28380U 04028A   22347.39460023  .00000070  00000+0  56656-4 0  9998
2 28380  82.9598 303.9402 0037986 236.1045 237.0217 13.76129177923560
COSMOS 2414 [+]         
1 28521U 05002A   22347.57381640  .00000076  00000+0  50472-4 0  9991
2 28521  82.9493 292.8004 0040974  25.2435 335.0718 13.87675020906084
COSMOS 2429 [-]         
1 32052U 07038A   22347.31462235  .00000058  00000+0  44426-4 0  9990
2 32052  82.9816  70.5330 0037801 213.0911 146.7880 13.74977693765482
COSMOS 2454 [-]         
1 35635U 09039A   22347.31088319  .00000098  00000+0  67419-4 0  9991
2 35635  82.9563 279.0113 0018670 330.8332 141.5745 13.89704188679349
COSMOS 2463 [+]         
1 36519U 10017A   22347.60138356  .00000071  00000+0  61311-4 0  9996
2 36519  82.9600 111.2354 0037468  86.3134 284.9892 13.71487304632259
